{"type": "FeatureCollection", "features": [ {"type": "Feature", "properties": {"norad_id": 61186, "name": "BEIDOU-3 M25 (C47)", "group": "beidou", "lat": -12.1384948919802, "lon": 137.17266296085273, "alt_km": 21533.810967334433, "timestamp": "2025-12-21T11:31:43.121355+00:00", "meta": {"OBJECT_NAME": "BEIDOU-3 M25 (C47)", "OBJECT_ID": "2024-168B", "EPOCH": "2025-12-20T22:07:53.377248", "MEAN_MOTION": 1.86230245, "ECCENTRICITY": 0.0005454, "INCLINATION": 54.6348, "RA_OF_ASC_NODE": 308.4372, "ARG_OF_PERICENTER": 299.6064, "MEAN_ANOMALY": 241.0883, "EPHEMERIS_TYPE": 0, "CLASSIFICATION_TYPE": "U", "NORAD_CAT_ID": 61186, "ELEMENT_SET_NO": 999, "REV_AT_EPOCH": 846, "BSTAR": 0, "MEAN_MOTION_DOT": -6.6e-07, "MEAN_MOTION_DDOT": 0}, "tle": {"line1": "1 61186U 24168B   25354.92214557 -.00000066  00000+0  00000+0 0  9998", "line2": "2 61186  54.6348 308.4372 0005454 299.6064 241.0883  1.86230245  8460"}}, "geometry": {"type": "Point", "coordinates": [137.17266296085273, -12.1384948919802]}}, {"type": "Feature", "properties": {"norad_id": 61187, "name": "BEIDOU-3 M27 (C49)", "group": "beidou", "lat": -24.1438794578138, "lon": -70.1683523226926, "alt_km": 21524.34104031144, "timestamp": "2025-12-21T11:31:43.121367+00:00", "meta": {"OBJECT_NAME": "BEIDOU-3 M27 (C49)", "OBJECT_ID": "2024-168C", "EPOCH": "2025-12-21T03:52:51.964320", "MEAN_MOTION": 1.86230388, "ECCENTRICITY": 0.0002532, "INCLINATION": 54.6301, "RA_OF_ASC_NODE": 308.4125, "ARG_OF_PERICENTER": 340.0564, "MEAN_ANOMALY": 136.2023, "EPHEMERIS_TYPE": 0, "CLASSIFICATION_TYPE": "U", "NORAD_CAT_ID": 61187, "ELEMENT_SET_NO": 999, "REV_AT_EPOCH": 594, "BSTAR": 0, "MEAN_MOTION_DOT": -6.4e-07, "MEAN_MOTION_DDOT": 0}, "tle": {"line1": "1 61187U 24168C   25355.16171255 -.00000064  00000+0  00000+0 0  9991", "line2": "2 61187  54.6301 308.4125 0002532 340.0564 136.2023  1.86230388  5945"}}, "geometry": {"type": "Point", "coordinates": [-70.1683523226926, -24.1438794578138]}}]}